OBJECT_NAME,OBJECT_ID,EPOCH,MEAN_MOTION,ECCENTRICITY,INCLINATION,RA_OF_ASC_NODE,ARG_OF_PERICENTER,MEAN_ANOMALY,EPHEMERIS_TYPE,CLASSIFICATION_TYPE,NORAD_CAT_ID,ELEMENT_SET_NO,REV_AT_EPOCH,BSTAR,MEAN_MOTION_DOT,MEAN_MOTION_DDOT
IRIDIUM 156,2018-061H,2026-07-13T00:02:14.474688,14.34217488,.0002075,86.3936,45.9308,91.5811,268.5623,0,U,43576,999,41707,.14316E-4,.6E-6,0
IRIDIUM 164,2018-061J,2026-07-12T16:52:58.647648,14.34217636,.0002309,86.3939,46.0967,89.1970,270.9490,0,U,43577,999,41707,.46177E-4,.149E-5,0
IRIDIUM 159,2018-061K,2026-07-13T00:29:38.416992,14.34217158,.0002035,86.3935,45.9002,84.9102,275.2326,0,U,43578,999,41708,-.29932E-6,.19E-6,0
IRIDIUM 180,2019-002A,2026-07-12T21:07:59.050848,14.34217781,.0002243,86.3991,342.8564,90.9268,269.2185,0,U,43922,999,39267,.2492E-4,.9E-6,0
IRIDIUM 176,2019-002B,2026-07-12T23:41:01.414752,14.72247469,.0002341,86.6108,342.7517,89.6789,270.4696,0,U,43923,999,40304,.63039E-4,.422E-5,0
IRIDIUM 168,2019-002C,2026-07-10T08:42:02.613600,14.34217872,.00022436,86.3988,343.9865,90.7210,269.4243,0,U,43924,999,39229,.8973003E-5,.45E-6,0
IRIDIUM 173,2019-002D,2026-07-12T22:21:02.899584,14.34216730,.0002031,86.3986,342.8012,91.5170,268.6259,0,U,43925,999,39264,-.42376E-4,-.99E-6,0
IRIDIUM 169,2019-002E,2026-07-12T23:42:29.668032,14.38613062,.000182,86.4220,14.4030,101.7059,258.4343,0,U,43926,999,39393,.43362E-5,.33E-6,0
IRIDIUM 172,2019-002F,2026-07-12T22:11:54.981024,14.34217689,.0002163,86.3985,342.8115,90.1447,269.9997,0,U,43927,999,39265,.16247E-4,.65E-6,0
IRIDIUM 175,2019-002G,2026-07-13T04:47:15.639648,14.43626590,.0005228,86.4512,279.6484,119.2126,240.9599,0,U,43928,999,40273,.46765E-4,.179E-5,0
IRIDIUM 171,2019-002H,2026-07-12T21:44:30.950592,14.34217573,.0002204,86.3995,343.1284,95.0881,265.0567,0,U,43929,999,39264,.10199E-4,.48E-6,0
IRIDIUM 170,2019-002J,2026-07-12T22:12:02.147904,14.72247984,.0002291,86.6108,342.7797,86.0820,274.0659,0,U,43930,999,40304,.63714E-4,.426E-5,0
IRIDIUM 167,2019-002K,2026-07-12T21:35:22.942176,14.34217708,.0002245,86.3989,342.8447,98.9006,261.2444,0,U,43931,999,39264,.12726E-4,.55E-6,0
IRIDIUM 181,2023-068S,2026-07-13T02:31:09.801120,14.43311568,.0002409,86.4476,45.9523,83.8620,276.2855,0,U,56726,999,16617,.49033E-4,.185E-5,0
IRIDIUM 177,2023-068T,2026-07-12T21:04:41.318400,14.80028266,.0002141,86.1984,316.5936,93.9999,266.1467,0,U,56727,999,17016,.72999E-4,.579E-5,0
IRIDIUM 174,2023-068U,2026-07-12T21:54:08.201952,14.72256530,.0002017,86.6116,342.9348,85.8663,274.2785,0,U,56728,999,16980,.65398E-4,.437E-5,0
IRIDIUM 178,2023-068V,2026-07-12T22:26:11.541120,14.80025518,.0002316,86.6533,14.5979,90.4858,269.6629,0,U,56729,999,17017,.22962E-4,.2E-5,0
IRIDIUM 179,2023-068W,2026-07-12T14:11:41.832096,14.80034097,.0002293,86.6765,23.7965,92.3365,267.8119,0,U,56730,999,17012,.58205E-4,.466E-5,0
